{
  "type": "FeatureCollection",
  "features": [
    {
      "type": "Feature",
      "properties": {
        "norad_id": 36453,
        "name": "COSMOS 2251 DEB",
        "group": "cosmos-2251-debris",
        "lat": -12.889542740239042,
        "lon": 126.76068412885833,
        "alt_km": 684.8744304927841,
        "timestamp": "2025-12-24T05:51:20.006735+00:00",
        "meta_object_name": "COSMOS 2251 DEB",
        "meta_object_id": "1993-036BBC",
        "meta_epoch": "2025-12-22T19:53:39.232320",
        "meta_mean_motion": 14.52671093,
        "meta_eccentricity": 0.00706202,
        "meta_inclination": 73.9241,
        "meta_ra_of_asc_node": 133.2304,
        "meta_arg_of_pericenter": 33.762,
        "meta_mean_anomaly": 116.2668,
        "meta_ephemeris_type": 0,
        "meta_classification_type": "U",
        "meta_norad_cat_id": 36453,
        "meta_element_set_no": 999,
        "meta_rev_at_epoch": 84614,
        "meta_bstar": 0.00082517813,
        "meta_mean_motion_dot": 3.465e-05,
        "meta_mean_motion_ddot": 0,
        "tle_line1": "1 36453U 93036BBC 25356.82892630  .00003465  00000+0  82518-3 0  9995",
        "tle_line2": "2 36453  73.9241 133.2304 0070620  33.7620 116.2668 14.52671093846142"
      },
      "geometry": {
        "type": "Point",
        "coordinates": [
          126.76068412885833,
          -12.889542740239042
        ]
      }
    },
    {
      "type": "Feature",
      "properties": {
        "norad_id": 36459,
        "name": "COSMOS 2251 DEB",
        "group": "cosmos-2251-debris",
        "lat": -71.79443623388332,
        "lon": -140.55827790168502,
        "alt_km": 890.762924931797,
        "timestamp": "2025-12-24T05:51:20.006745+00:00",
        "meta_object_name": "COSMOS 2251 DEB",
        "meta_object_id": "1993-036BBJ",
        "meta_epoch": "2025-12-20T06:23:01.272480",
        "meta_mean_motion": 14.26454896,
        "meta_eccentricity": 0.0113312,
        "meta_inclination": 74.0464,
        "meta_ra_of_asc_node": 346.1968,
        "meta_arg_of_pericenter": 79.9168,
        "meta_mean_anomaly": 281.4741,
        "meta_ephemeris_type": 0,
        "meta_classification_type": "U",
        "meta_norad_cat_id": 36459,
        "meta_element_set_no": 999,
        "meta_rev_at_epoch": 7989,
        "meta_bstar": 0.00092616994,
        "meta_mean_motion_dot": 2.362e-05,
        "meta_mean_motion_ddot": 0,
        "tle_line1": "1 36459U 93036BBJ 25354.26598695  .00002362  00000+0  92617-3 0  9997",
        "tle_line2": "2 36459  74.0464 346.1968 0113312  79.9168 281.4741 14.26454896 79891"
      },
      "geometry": {
        "type": "Point",
        "coordinates": [
          -140.55827790168502,
          -71.79443623388332
        ]
      }
    },
    {
      "type": "Feature",
      "properties": {
        "norad_id": 36470,
        "name": "COSMOS 2251 DEB",
        "group": "cosmos-2251-debris",
        "lat": 63.61168009151245,
        "lon": -93.77658907378014,
        "alt_km": 520.3854900806136,
        "timestamp": "2025-12-24T05:51:20.006755+00:00",
        "meta_object_name": "COSMOS 2251 DEB",
        "meta_object_id": "1993-036BBV",
        "meta_epoch": "2025-12-15T00:13:00.014016",
        "meta_mean_motion": 15.07582269,
        "meta_eccentricity": 0.00222568,
        "meta_inclination": 73.8449,
        "meta_ra_of_asc_node": 249.6845,
        "meta_arg_of_pericenter": 78.1368,
        "meta_mean_anomaly": 282.2316,
        "meta_ephemeris_type": 0,
        "meta_classification_type": "U",
        "meta_norad_cat_id": 36470,
        "meta_element_set_no": 999,
        "meta_rev_at_epoch": 66128,
        "meta_bstar": 0.0018721064,
        "meta_mean_motion_dot": 0.0002872,
        "meta_mean_motion_ddot": 0,
        "tle_line1": "1 36470U 93036BBV 25349.00902794  .00028720  00000+0  18721-2 0  9994",
        "tle_line2": "2 36470  73.8449 249.6845 0022256  78.1368 282.2316 15.07582269661287"
      },
      "geometry": {
        "type": "Point",
        "coordinates": [
          -93.77658907378014,
          63.61168009151245
        ]
      }
    },
    {
      "type": "Feature",
      "properties": {
        "norad_id": 36528,
        "name": "COSMOS 2251 DEB",
        "group": "cosmos-2251-debris",
        "lat": -9.836785511544626,
        "lon": -52.897876746670725,
        "alt_km": 735.9010139311013,
        "timestamp": "2025-12-24T05:51:20.006765+00:00",
        "meta_object_name": "COSMOS 2251 DEB",
        "meta_object_id": "1993-036BCN",
        "meta_epoch": "2025-12-23T02:07:16.025088",
        "meta_mean_motion": 14.30700517,
        "meta_eccentricity": 0.00843039,
        "meta_inclination": 74.0164,
        "meta_ra_of_asc_node": 126.3587,
        "meta_arg_of_pericenter": 173.6908,
        "meta_mean_anomaly": 186.5326,
        "meta_ephemeris_type": 0,
        "meta_classification_type": "U",
        "meta_norad_cat_id": 36528,
        "meta_element_set_no": 999,
        "meta_rev_at_epoch": 64575,
        "meta_bstar": 0.0012053089,
        "meta_mean_motion_dot": 3.253e-05,
        "meta_mean_motion_ddot": 0,
        "tle_line1": "1 36528U 93036BCN 25357.08837992  .00003253  00000+0  12053-2 0  9998",
        "tle_line2": "2 36528  74.0164 126.3587 0084303 173.6908 186.5326 14.30700517645758"
      },
      "geometry": {
        "type": "Point",
        "coordinates": [
          -52.897876746670725,
          -9.836785511544626
        ]
      }
    },
    {
      "type": "Feature",
      "properties": {
        "norad_id": 36533,
        "name": "COSMOS 2251 DEB",
        "group": "cosmos-2251-debris",
        "lat": 56.755179469544345,
        "lon": 119.13693828879109,
        "alt_km": 755.3285070442407,
        "timestamp": "2025-12-24T05:51:20.006775+00:00",
        "meta_object_name": "COSMOS 2251 DEB",
        "meta_object_id": "1993-036BCT",
        "meta_epoch": "2025-12-20T07:10:55.572384",
        "meta_mean_motion": 14.49841548,
        "meta_eccentricity": 0.00492519,
        "meta_inclination": 74.0124,
        "meta_ra_of_asc_node": 100.614,
        "meta_arg_of_pericenter": 248.4514,
        "meta_mean_anomaly": 111.1393,
        "meta_ephemeris_type": 0,
        "meta_classification_type": "U",
        "meta_norad_cat_id": 36533,
        "meta_element_set_no": 999,
        "meta_rev_at_epoch": 84594,
        "meta_bstar": 0.00033689925,
        "meta_mean_motion_dot": 1.292e-05,
        "meta_mean_motion_ddot": 0,
        "tle_line1": "1 36533U 93036BCT 25354.29925431  .00001292  00000+0  33690-3 0  9992",
        "tle_line2": "2 36533  74.0124 100.6140 0049251 248.4514 111.1393 14.49841548845948"
      },
      "geometry": {
        "type": "Point",
        "coordinates": [
          119.13693828879109,
          56.755179469544345
        ]
      }
    },
    {
      "type": "Feature",
      "properties": {
        "norad_id": 36539,
        "name": "COSMOS 2251 DEB",
        "group": "cosmos-2251-debris",
        "lat": -60.49749879580133,
        "lon": 2.8128505569673345,
        "alt_km": 711.0581120597672,
        "timestamp": "2025-12-24T05:51:20.006786+00:00",
        "meta_object_name": "COSMOS 2251 DEB",
        "meta_object_id": "1993-036BCZ",
        "meta_epoch": "2025-12-23T20:16:56.078400",
        "meta_mean_motion": 14.5936501,
        "meta_eccentricity": 0.0026473,
        "meta_inclination": 74.0229,
        "meta_ra_of_asc_node": 33.9938,
        "meta_arg_of_pericenter": 177.0377,
        "meta_mean_anomaly": 183.0951,
        "meta_ephemeris_type": 0,
        "meta_classification_type": "U",
        "meta_norad_cat_id": 36539,
        "meta_element_set_no": 999,
        "meta_rev_at_epoch": 84109,
        "meta_bstar": 0.00062778693,
        "meta_mean_motion_dot": 2.957e-05,
        "meta_mean_motion_ddot": 0,
        "tle_line1": "1 36539U 93036BCZ 25357.84509350  .00002957  00000+0  62779-3 0  9999",
        "tle_line2": "2 36539  74.0229  33.9938 0026473 177.0377 183.0951 14.59365010841094"
      },
      "geometry": {
        "type": "Point",
        "coordinates": [
          2.8128505569673345,
          -60.49749879580133
        ]
      }
    },
    {
      "type": "Feature",
      "properties": {
        "norad_id": 36540,
        "name": "COSMOS 2251 DEB",
        "group": "cosmos-2251-debris",
        "lat": -41.616061157745804,
        "lon": -6.654280924490179,
        "alt_km": 693.6531179952353,
        "timestamp": "2025-12-24T05:51:20.006796+00:00",
        "meta_object_name": "COSMOS 2251 DEB",
        "meta_object_id": "1993-036BDA",
        "meta_epoch": "2025-12-23T20:36:08.955072",
        "meta_mean_motion": 14.58585087,
        "meta_eccentricity": 0.00146281,
        "meta_inclination": 74.0279,
        "meta_ra_of_asc_node": 159.3401,
        "meta_arg_of_pericenter": 229.2513,
        "meta_mean_anomaly": 130.7383,
        "meta_ephemeris_type": 0,
        "meta_classification_type": "U",
        "meta_norad_cat_id": 36540,
        "meta_element_set_no": 999,
        "meta_rev_at_epoch": 86172,
        "meta_bstar": 0.0012602578,
        "meta_mean_motion_dot": 5.848e-05,
        "meta_mean_motion_ddot": 0,
        "tle_line1": "1 36540U 93036BDA 25357.85843698  .00005848  00000+0  12603-2 0  9990",
        "tle_line2": "2 36540  74.0279 159.3401 0014628 229.2513 130.7383 14.58585087861727"
      },
      "geometry": {
        "type": "Point",
        "coordinates": [
          -6.654280924490179,
          -41.616061157745804
        ]
      }
    }
  ]
}